OPTICUBE 04             
1 41851U 16067D   25041.08168271  .00005488  00000+0  38010-3 0  9993
2 41851  98.0885 222.8486 0016631 342.5998  17.4655 15.05996910451001
AEROCUBE 8D             
1 41852U 16067E   25041.01872643  .00013316  00000+0  72292-3 0  9991
2 41852  98.1117 230.5447 0004990  31.5110 328.6419 15.14665999451319
AEROCUBE 8C             
1 41853U 16067F   25040.76800170  .00011437  00000+0  62074-3 0  9998
2 41853  98.0953 228.3051 0006357 322.3431  37.7354 15.14710448451269
PROMETHEUS 2-1          
1 41854U 16067G   25040.82139830  .00041077  00000+0  11964-2 0  9998
2 41854  98.0910 241.2700 0008918 321.0611  38.9987 15.35246986451954
PROMETHEUS 2-3          
1 41855U 16067H   25041.08870425  .00050424  00000+0  14685-2 0  9999
2 41855  98.0852 240.8255 0007823 328.9835  31.0943 15.35207402451998
CORVUS BC2              
1 42846U 17042X   25040.94954430  .00006358  00000+0  49604-3 0  9994
2 42846  97.3685 219.4416 0013194 349.1726  10.9213 15.01412317413077
CORVUS BC1              
1 42847U 17042Y   25040.95276612  .00007078  00000+0  54896-3 0  9994
2 42847  97.3710 219.8857 0011898 326.6225  33.4249 15.01614765413095
MIRATA                  
1 43015U 17073C   25040.93979769  .00053417  00000+0  14476-2 0  9994
2 43015  97.5616 291.9814 0116513 154.3855 206.3222 15.30799315392397
MAKERSAT 0              
1 43016U 17073D   25041.17944671  .00023894  00000+0  10774-2 0  9999
2 43016  97.5401 280.8170 0160749 191.7220 168.0250 15.10113711391676
SIRION PATHFINDER-2     
1 43759U 18099B   25041.08849819  .00010155  00000+0  66638-3 0  9997
2 43759  97.4974  96.9292 0009843 188.4779 171.6285 15.07808035338297
CORVUS BC4              
1 43767U 18099K   25040.87553604  .00008408  00000+0  57213-3 0  9993
2 43767  97.4798  93.0739 0008040 251.1490 108.8866 15.06527610338125
MOVE-II                 
1 43780U 18099Y   25041.17792907  .00083805  00000+0  20008-2 0  9998
2 43780  97.4851 111.2824 0004027 218.2658 141.8303 15.41209305339232
SPACEBEE-7              
1 43816U 18099BL  25040.92347293  .00038098  00000+0  14499-2 0  9995
2 43816  97.5146 109.6481 0007416 175.3677 184.7632 15.26624247338485
SHIELDS 1               
1 43850U 18104B   25041.24598619  .00038987  00000+0  65109-3 0  9998
2 43850  85.0195 120.0027 0006965 236.0542 124.0054 15.51744504342898
SONATE                  
1 44400U 19038Q   25040.96715906  .00077974  00000+0  10289-2 0  9992
2 44400  97.7098  55.4311 0008228 346.3127  13.7903 15.58096117310773
DUCHIFAT-3              
1 44854U 19089C   25041.03281811  .00045729  00000+0  13668-2 0  9990
2 44854  36.9495  28.1826 0010511 270.8041  89.1507 15.33569320284506
M2 PATHFINDER           
1 45727U 20037E   25041.05561367  .00006908  00000+0  54993-3 0  9997
2 45727  97.7925 223.0034 0012922  28.5716 331.6213 15.00644991251573
NETSAT-4                
1 46504U 20068U   25040.83698280  .00018872  00000+0  75602-3 0  9998
2 46504  97.8337  12.4429 0005619 254.4333 105.6284 15.25081861240262
NETSAT-3                
1 46505U 20068V   25041.18994069  .00021811  00000+0  89806-3 0  9990
2 46505  97.8327  12.0023 0005282 268.5976  91.4655 15.24127697240297
NETSAT-1                
1 46506U 20068W   25040.91045556  .00015624  00000+0  71700-3 0  9998
2 46506  97.8355  10.3073 0004868 290.5997  69.4715 15.20508457240152
NETSAT-2                
1 46507U 20068X   25040.86795511  .00021805  00000+0  87865-3 0  9993
2 46507  97.8328  12.0290 0003824 296.7717  63.3128 15.24860170240217
WILDTRACKCUBE-SIMBA     
1 47941U 21022K   25041.22670747  .00038468  00000+0  10905-2 0  9994
2 47941  97.4370 303.7795 0013009  32.8407 327.3643 15.36062118214815
GRBALPHA                
1 47959U 21022AD  25041.13354121  .00098149  00000+0  16160-2 0  9999
2 47959  97.4342 308.5980 0009606  28.5132 331.6644 15.51943120213947
LEDSAT                  
1 49069U 21073D   25041.23759467  .00061306  00000+0  13371-2 0  9998
2 49069  97.4055 119.2665 0013120 153.2108 206.9821 15.43937066192922
ROBUSTA-1F (MTCUBE 2)   
1 53109U 22080E   25040.12842190 -.00000003  00000+0  00000+0 0  9990
2 53109  70.1245 109.7317 0008339  35.3923 324.7289  6.42584142 60383
SITRO-AIS 5 (KATYS)     
1 57176U 23091L   25041.19089259  .00016812  00000+0  87054-3 0  9990
2 57176  97.5785  98.1254 0015740  28.8731 331.3369 15.16175275 89469
SITRO-AIS 6 (CHIRKIN)   
1 57192U 23091AC  25041.17246828  .00016824  00000+0  87264-3 0  9999
2 57192  97.5783  98.1338 0015609  28.5229 331.6854 15.16117475 89461
SITRO-AIS 8 (ANOKHIN)   
1 57193U 23091AD  25041.11037222  .00017751  00000+0  89441-3 0  9999
2 57193  97.5781  98.3562 0015148  28.8996 331.3073 15.17130952 89470
SITRO-AIS 7 (FARTUSHNIY)
1 57194U 23091AE  25041.12189846  .00015313  00000+0  79590-3 0  9997
2 57194  97.5782  98.0377 0015533  29.5321 330.6785 15.16066578 89452
SITRO-AIS 10 (BURDAEV)  
1 57199U 23091AK  25041.19909674  .00020500  00000+0  95610-3 0  9993
2 57199  97.5793 100.1907 0010527  16.6610 343.4968 15.19843697 89597
SITRO-AIS 9 (SHCHUKIN)  
1 57201U 23091AM  25041.13937854  .00018937  00000+0  88659-3 0  9998
2 57201  97.5789 100.0783 0010529  17.2451 342.9139 15.19729708 89588
SITRO-AIS 12 (SMIRENNIY)
1 57204U 23091AQ  25041.13719804  .00019141  00000+0  89101-3 0  9995
2 57204  97.5798 100.3065 0010315  11.2704 348.8760 15.19927584 89593
SITRO-AIS 11 (SHEFFER)  
1 57208U 23091AU  25041.16957446  .00020461  00000+0  94782-3 0  9996
2 57208  97.5796 100.3993 0010145  11.1393 349.0064 15.20083439 89605
VERONIKA                
1 58261U 23174F   25041.15837368  .00074138  00000+0  16199-2 0  9992
2 58261  97.4303 122.7383 0007486 118.3610 241.8394 15.43889001 70110
ROBUSTA-1E (ENSO)       
1 58470U 23185J   25041.16359431  .00053588  00000+0  12805-2 0  9993
2 58470  97.3922 113.6778 0009097 149.3703 210.8077 15.41284884 66555
SITRO-AIS 29            
1 59052U 24039B   25041.16099464  .00124818  00000+0  16621-2 0  9991
2 59052  97.4122  11.7910 0014645  85.4108 274.8820 15.57599489 53217
SITRO-AIS 30            
1 59053U 24039C   25041.21562064  .00120584  00000+0  16675-2 0  9994
2 59053  97.4116  11.7081 0014675  85.2243 275.0687 15.56596631 53209
SITRO-AIS 31            
1 59054U 24039D   25041.22362022  .00123686  00000+0  16642-2 0  9998
2 59054  97.4133  11.8575 0014521  87.2946 272.9971 15.57326948 53238
SITRO-AIS 33            
1 59055U 24039E   25041.19613827  .00120512  00000+0  16127-2 0  9990
2 59055  97.4119  11.9027 0014285  86.2330 274.0558 15.57488046 53220
SITRO-AIS 35            
1 59056U 24039F   25041.18592112  .00127693  00000+0  16971-2 0  9997
2 59056  97.4131  11.9152 0014314  88.4649 271.8246 15.57647181 53220
SITRO-AIS 32            
1 59057U 24039G   25041.17188551  .00116825  00000+0  15981-2 0  9990
2 59057  97.4129  11.7906 0014497  87.1775 273.1139 15.56905706 53215
SITRO-AIS 34            
1 59058U 24039H   25041.19656129  .00122342  00000+0  16388-2 0  9997
2 59058  97.4121  11.9058 0014240  86.4454 273.8430 15.57456037 53221
SITRO-AIS 36            
1 59059U 24039J   25041.17390485  .00121014  00000+0  16251-2 0  9990
2 59059  97.4109  11.9246 0013945  87.1952 273.0900 15.57397932 53221
SITRO-AIS 49            
1 59060U 24039K   25041.20820698  .00123278  00000+0  16851-2 0  9990
2 59060  97.4119  11.8868 0014221  86.4547 273.8334 15.56908335 53226
SITRO-AIS 50            
1 59061U 24039L   25041.18687072  .00126999  00000+0  16524-2 0  9995
2 59061  97.4107  12.0564 0013737  85.9774 274.3051 15.58227723 53237
SITRO-AIS 51            
1 59062U 24039M   25041.17683388  .00133071  00000+0  17111-2 0  9993
2 59062  97.4110  12.0685 0013818  85.8775 274.4060 15.58520395 53238
SITRO-AIS 52            
1 59063U 24039N   25041.21957006  .00131959  00000+0  16894-2 0  9990
2 59063  97.4123  12.1757 0013829  88.0730 272.2110 15.58640374 53245
SITRO-AIS 25            
1 59066U 24039R   25041.19337798  .00009184  00000+0  80778-3 0  9997
2 59066  95.3822 258.8402 0158237 241.2286 117.2965 14.87435103 51437
SITRO-AIS 26            
1 59067U 24039S   25041.20760876  .00009464  00000+0  83519-3 0  9994
2 59067  95.3824 258.8267 0158368 241.3063 117.2163 14.87292982 51434
SITRO-AIS 27            
1 59068U 24039T   25041.16064269  .00009099  00000+0  79830-3 0  9998
2 59068  95.3829 258.8774 0157630 241.0159 117.5186 14.87597537 51439
SITRO-AIS 28            
1 59071U 24039U   25041.21823988  .00010102  00000+0  88521-3 0  9993
2 59071  95.3828 258.9360 0157488 240.7378 117.8023 14.87639286 51446
GRBBETA                 
1 60237U 24128C   25040.62410322  .00006001  00000+0  47838-3 0  9995
2 60237  61.9930 137.2750 0039718  29.4629 330.8687 15.00782672 32180
OOV-CUBE (TUBSAT-30)    
1 60240U 24128F   25040.98335870  .00004801  00000+0  40429-3 0  9997
2 60240  61.9971 137.4163 0038241  25.7480 334.5502 14.99043292 32220
ROBUSTA-3A (MEDITERRAN*)
1 60243U 24128J   25040.58509133  .00009889  00000+0  76066-3 0  9998
2 60243  61.9899 137.5617 0038143  21.5196 338.7487 15.01651096 32180
LASARSAT                
1 62391U 24247Q   25040.83655411  .00019011  00000+0  87246-3 0  9995
2 62391  44.9923  89.5583 0003879  17.0968 343.0042 15.20190750  7801
CROCUBE                 
1 62394U 24247T   25040.83837498  .00019655  00000+0  90191-3 0  9992
2 62394  44.9913  89.5694 0004323  22.2267 337.8800 15.20174826  7800
